[{"OBJECT_NAME":"COSMOS 2350","OBJECT_ID":"1998-025A","EPOCH":"2026-03-06T21:08:43.774944","MEAN_MOTION":1.00284666,"ECCENTRICITY":0.0004666,"INCLINATION":13.9258,"RA_OF_ASC_NODE":4.5914,"ARG_OF_PERICENTER":195.2001,"MEAN_ANOMALY":354.2059,"EPHEMERIS_TYPE":0,"CLASSIFICATION_TYPE":"U","NORAD_CAT_ID":25315,"ELEMENT_SET_NO":999,"REV_AT_EPOCH":10198,"BSTAR":0,"MEAN_MOTION_DOT":-8.7e-7,"MEAN_MOTION_DDOT":0},{"OBJECT_NAME":"SL-12 R/B(2)","OBJECT_ID":"1998-025D","EPOCH":"2026-03-06T11:34:56.324640","MEAN_MOTION":1.00044317,"ECCENTRICITY":0.00291821,"INCLINATION":13.9495,"RA_OF_ASC_NODE":4.6322,"ARG_OF_PERICENTER":131.7165,"MEAN_ANOMALY":61.9095,"EPHEMERIS_TYPE":0,"CLASSIFICATION_TYPE":"U","NORAD_CAT_ID":25318,"ELEMENT_SET_NO":999,"REV_AT_EPOCH":10174,"BSTAR":0,"MEAN_MOTION_DOT":8.8e-7,"MEAN_MOTION_DDOT":0},{"OBJECT_NAME":"BADR-3 (ARABSAT-3A)","OBJECT_ID":"1999-009A","EPOCH":"2026-03-06T23:37:50.153664","MEAN_MOTION":1.00125603,"ECCENTRICITY":0.0007419,"INCLINATION":11.7696,"RA_OF_ASC_NODE":33.2987,"ARG_OF_PERICENTER":317.6973,"MEAN_ANOMALY":42.7243,"EPHEMERIS_TYPE":0,"CLASSIFICATION_TYPE":"U","NORAD_CAT_ID":25638,"ELEMENT_SET_NO":999,"REV_AT_EPOCH":9893,"BSTAR":0,"MEAN_MOTION_DOT":3.7e-7,"MEAN_MOTION_DDOT":0},{"OBJECT_NAME":"RADUGA-1 4","OBJECT_ID":"1999-010A","EPOCH":"2026-03-06T18:22:38.727264","MEAN_MOTION":1.00260458,"ECCENTRICITY":0.000746,"INCLINATION":15.6125,"RA_OF_ASC_NODE":2.4792,"ARG_OF_PERICENTER":287.5986,"MEAN_ANOMALY":263.6096,"EPHEMERIS_TYPE":0,"CLASSIFICATION_TYPE":"U","NORAD_CAT_ID":25642,"ELEMENT_SET_NO":999,"REV_AT_EPOCH":9892,"BSTAR":0,"MEAN_MOTION_DOT":-3.73e-6,"MEAN_MOTION_DDOT":0},{"OBJECT_NAME":"TELKOM 1","OBJECT_ID":"1999-042A","EPOCH":"2026-03-06T23:43:38.777664","MEAN_MOTION":1.00249261,"ECCENTRICITY":0.0017268,"INCLINATION":7.4275,"RA_OF_ASC_NODE":67.4709,"ARG_OF_PERICENTER":257.8493,"MEAN_ANOMALY":278.8904,"EPHEMERIS_TYPE":0,"CLASSIFICATION_TYPE":"U","NORAD_CAT_ID":25880,"ELEMENT_SET_NO":999,"REV_AT_EPOCH":9736,"BSTAR":0,"MEAN_MOTION_DOT":-1.69e-6,"MEAN_MOTION_DDOT":0},{"OBJECT_NAME":"ABS-7","OBJECT_ID":"1999-046A","EPOCH":"2026-03-07T03:46:38.577216","MEAN_MOTION":0.99970183,"ECCENTRICITY":0.0004617,"INCLINATION":6.2207,"RA_OF_ASC_NODE":71.9994,"ARG_OF_PERICENTER":252.4684,"MEAN_ANOMALY":99.2249,"EPHEMERIS_TYPE":0,"CLASSIFICATION_TYPE":"U","NORAD_CAT_ID":25894,"ELEMENT_SET_NO":999,"REV_AT_EPOCH":9605,"BSTAR":0,"MEAN_MOTION_DOT":1.13e-6,"MEAN_MOTION_DDOT":0},{"OBJECT_NAME":"YAMAL 102","OBJECT_ID":"1999-047B","EPOCH":"2026-03-06T13:59:49.266240","MEAN_MOTION":0.9999622,"ECCENTRICITY":0.00053139,"INCLINATION":13.6109,"RA_OF_ASC_NODE":13.4548,"ARG_OF_PERICENTER":332.8061,"MEAN_ANOMALY":36.2374,"EPHEMERIS_TYPE":0,"CLASSIFICATION_TYPE":"U","NORAD_CAT_ID":25897,"ELEMENT_SET_NO":999,"REV_AT_EPOCH":9697,"BSTAR":0,"MEAN_MOTION_DOT":-1.8e-7,"MEAN_MOTION_DDOT":0},{"OBJECT_NAME":"ABS-6","OBJECT_ID":"1999-053A","EPOCH":"2026-03-06T22:05:38.746176","MEAN_MOTION":1.00272227,"ECCENTRICITY":0.0003015,"INCLINATION":0.0401,"RA_OF_ASC_NODE":254.7516,"ARG_OF_PERICENTER":72.3415,"MEAN_ANOMALY":327.9748,"EPHEMERIS_TYPE":0,"CLASSIFICATION_TYPE":"U","NORAD_CAT_ID":25924,"ELEMENT_SET_NO":999,"REV_AT_EPOCH":9681,"BSTAR":0,"MEAN_MOTION_DOT":-1.22e-6,"MEAN_MOTION_DDOT":0},{"OBJECT_NAME":"UFO 10 (USA 146)","OBJECT_ID":"1999-063A","EPOCH":"2026-03-06T05:17:25.024128","MEAN_MOTION":1.00273456,"ECCENTRICITY":0.00053131,"INCLINATION":9.8508,"RA_OF_ASC_NODE":27.782,"ARG_OF_PERICENTER":295.7559,"MEAN_ANOMALY":256.937,"EPHEMERIS_TYPE":0,"CLASSIFICATION_TYPE":"U","NORAD_CAT_ID":25967,"ELEMENT_SET_NO":999,"REV_AT_EPOCH":9631,"BSTAR":0,"MEAN_MOTION_DOT":-1.9e-6,"MEAN_MOTION_DDOT":0},{"OBJECT_NAME":"GALAXY 10R (G-10R)","OBJECT_ID":"2000-002A","EPOCH":"2026-03-06T20:28:12.026208","MEAN_MOTION":0.99638336,"ECCENTRICITY":0.0003952,"INCLINATION":12.0125,"RA_OF_ASC_NODE":31.9902,"ARG_OF_PERICENTER":207.6751,"MEAN_ANOMALY":161.8792,"EPHEMERIS_TYPE":0,"CLASSIFICATION_TYPE":"U","NORAD_CAT_ID":26056,"ELEMENT_SET_NO":999,"REV_AT_EPOCH":9531,"BSTAR":0,"MEAN_MOTION_DOT":-2.15e-6,"MEAN_MOTION_DDOT":0},{"OBJECT_NAME":"GARUDA 1","OBJECT_ID":"2000-011A","EPOCH":"2026-03-07T01:09:38.825856","MEAN_MOTION":0.99904074,"ECCENTRICITY":0.0005175,"INCLINATION":9.4033,"RA_OF_ASC_NODE":65.1289,"ARG_OF_PERICENTER":246.3449,"MEAN_ANOMALY":130.9487,"EPHEMERIS_TYPE":0,"CLASSIFICATION_TYPE":"U","NORAD_CAT_ID":26089,"ELEMENT_SET_NO":999,"REV_AT_EPOCH":4064,"BSTAR":0,"MEAN_MOTION_DOT":-7.4e-7,"MEAN_MOTION_DDOT":0},{"OBJECT_NAME":"SL-12 R/B(2)","OBJECT_ID":"2000-013D","EPOCH":"2026-03-06T23:32:58.119936","MEAN_MOTION":1.00760705,"ECCENTRICITY":0.0006349,"INCLINATION":14.3086,"RA_OF_ASC_NODE":1.5968,"ARG_OF_PERICENTER":60.4231,"MEAN_ANOMALY":313.6054,"EPHEMERIS_TYPE":0,"CLASSIFICATION_TYPE":"U","NORAD_CAT_ID":26101,"ELEMENT_SET_NO":999,"REV_AT_EPOCH":9561,"BSTAR":0,"MEAN_MOTION_DOT":3.7e-7,"MEAN_MOTION_DDOT":0},{"OBJECT_NAME":"ASIASTAR","OBJECT_ID":"2000-016A","EPOCH":"2026-03-06T23:01:38.697024","MEAN_MOTION":1.0027064,"ECCENTRICITY":0.0004621,"INCLINATION":8.8927,"RA_OF_ASC_NODE":59.2355,"ARG_OF_PERICENTER":298.0104,"MEAN_ANOMALY":257.8413,"EPHEMERIS_TYPE":0,"CLASSIFICATION_TYPE":"U","NORAD_CAT_ID":26107,"ELEMENT_SET_NO":999,"REV_AT_EPOCH":9489,"BSTAR":0,"MEAN_MOTION_DOT":-3.35e-6,"MEAN_MOTION_DDOT":0},{"OBJECT_NAME":"GALAXY 4R (G-4R)","OBJECT_ID":"2000-020A","EPOCH":"2026-03-06T18:47:29.184288","MEAN_MOTION":0.99834493,"ECCENTRICITY":0.0006567,"INCLINATION":12.6122,"RA_OF_ASC_NODE":24.8209,"ARG_OF_PERICENTER":247.3338,"MEAN_ANOMALY":111.2941,"EPHEMERIS_TYPE":0,"CLASSIFICATION_TYPE":"U","NORAD_CAT_ID":26298,"ELEMENT_SET_NO":999,"REV_AT_EPOCH":9459,"BSTAR":0,"MEAN_MOTION_DOT":-2.67e-6,"MEAN_MOTION_DDOT":0},{"OBJECT_NAME":"USA 149 (DSP 20)","OBJECT_ID":"2000-024A","EPOCH":"2026-03-06T14:45:38.546208","MEAN_MOTION":1.00277372,"ECCENTRICITY":0.00023331,"INCLINATION":13.0934,"RA_OF_ASC_NODE":12.572,"ARG_OF_PERICENTER":9.3806,"MEAN_ANOMALY":198.4563,"EPHEMERIS_TYPE":0,"CLASSIFICATION_TYPE":"U","NORAD_CAT_ID":26356,"ELEMENT_SET_NO":999,"REV_AT_EPOCH":3188,"BSTAR":0,"MEAN_MOTION_DOT":9.3e-7,"MEAN_MOTION_DDOT":0},{"OBJECT_NAME":"IUS R/B(2)","OBJECT_ID":"2000-024D","EPOCH":"2026-03-07T01:54:25.138368","MEAN_MOTION":0.99713143,"ECCENTRICITY":0.0005436,"INCLINATION":13.2445,"RA_OF_ASC_NODE":13.3043,"ARG_OF_PERICENTER":182.2059,"MEAN_ANOMALY":177.7915,"EPHEMERIS_TYPE":0,"CLASSIFICATION_TYPE":"U","NORAD_CAT_ID":26359,"ELEMENT_SET_NO":999,"REV_AT_EPOCH":2435,"BSTAR":0,"MEAN_MOTION_DOT":-7.7e-7,"MEAN_MOTION_DDOT":0},{"OBJECT_NAME":"GORIZONT 33","OBJECT_ID":"2000-029A","EPOCH":"2026-03-06T20:39:51.721920","MEAN_MOTION":1.00156695,"ECCENTRICITY":0.0003175,"INCLINATION":13.825,"RA_OF_ASC_NODE":7.5449,"ARG_OF_PERICENTER":262.9796,"MEAN_ANOMALY":296.567,"EPHEMERIS_TYPE":0,"CLASSIFICATION_TYPE":"U","NORAD_CAT_ID":26372,"ELEMENT_SET_NO":999,"REV_AT_EPOCH":9440,"BSTAR":0,"MEAN_MOTION_DOT":-2.46e-6,"MEAN_MOTION_DDOT":0}]
