COSMOS 2350             
1 25315U 98025A   26065.88106221 -.00000087  00000+0  00000+0 0  9991
2 25315  13.9258   4.5914 0004666 195.2001 354.2059  1.00284666101989
SL-12 R/B(2)            
1 25318U 98025D   26065.48259635  .00000088  00000+0  00000+0 0  9998
2 25318  13.9495   4.6322 0029182 131.7165  61.9095  1.00044317101748
BADR-3 (ARABSAT-3A)     
1 25638U 99009A   26065.98460826  .00000037  00000+0  00000+0 0  9991
2 25638  11.7696  33.2987 0007419 317.6973  42.7243  1.00125603 98934
RADUGA-1 4              
1 25642U 99010A   26065.76572601 -.00000373  00000+0  00000+0 0  9993
2 25642  15.6125   2.4792 0007460 287.5986 263.6096  1.00260458 98923
TELKOM 1                
1 25880U 99042A   26065.98864326 -.00000169  00000+0  00000+0 0  9997
2 25880   7.4275  67.4709 0017268 257.8493 278.8904  1.00249261 97363
ABS-7                   
1 25894U 99046A   26066.15739094  .00000113  00000+0  00000+0 0  9997
2 25894   6.2207  71.9994 0004617 252.4684  99.2249  0.99970183 96056
YAMAL 102               
1 25897U 99047B   26065.58320910 -.00000018  00000+0  00000+0 0  9995
2 25897  13.6109  13.4548 0005313 332.8061  36.2374  0.99996220 96975
ABS-6                   
1 25924U 99053A   26065.92058734 -.00000122  00000+0  00000+0 0  9999
2 25924   0.0401 254.7516 0003015  72.3415 327.9748  1.00272227 96817
UFO 10 (USA 146)        
1 25967U 99063A   26065.22042852 -.00000190  00000+0  00000+0 0  9999
2 25967   9.8508  27.7820 0005313 295.7559 256.9370  1.00273456 96310
GALAXY 10R (G-10R)      
1 26056U 00002A   26065.85291697 -.00000215  00000+0  00000+0 0  9994
2 26056  12.0125  31.9902 0003952 207.6751 161.8792  0.99638336 95312
GARUDA 1                
1 26089U 00011A   26066.04836604 -.00000074  00000+0  00000+0 0  9998
2 26089   9.4033  65.1289 0005175 246.3449 130.9487  0.99904074 40645
SL-12 R/B(2)            
1 26101U 00013D   26065.98122824  .00000037  00000+0  00000+0 0  9997
2 26101  14.3086   1.5968 0006349  60.4231 313.6054  1.00760705 95610
ASIASTAR                
1 26107U 00016A   26065.95947566 -.00000335  00000+0  00000+0 0  9993
2 26107   8.8927  59.2355 0004621 298.0104 257.8413  1.00270640 94898
GALAXY 4R (G-4R)        
1 26298U 00020A   26065.78297667 -.00000267  00000+0  00000+0 0  9994
2 26298  12.6122  24.8209 0006567 247.3338 111.2941  0.99834493 94597
USA 149 (DSP 20)        
1 26356U 00024A   26065.61502947  .00000093  00000+0  00000+0 0  9991
2 26356  13.0934  12.5720 0002333   9.3806 198.4563  1.00277372 31883
IUS R/B(2)              
1 26359U 00024D   26066.07945762 -.00000077  00000+0  00000+0 0  9994
2 26359  13.2445  13.3043 0005436 182.2059 177.7915  0.99713143 24353
GORIZONT 33             
1 26372U 00029A   26065.86101530 -.00000246  00000+0  00000+0 0  9995
2 26372  13.8250   7.5449 0003175 262.9796 296.5670  1.00156695 94402
